
G1 X0.0 Y0.0 Z-0.3 A0.0 C0.0 F500

G1 X0.05 Y0.0 Z-0.3 A0.0 C0.0 
G1 X0.05 Y0.0 Z-0.40
G1 X0.05 Y0.0 Z-0.35

G1 X0.0 Y0.0 Z-0.3

G1 X-0.05 Y0.0 Z-0.35
G1 X-0.05 Y0.0 Z-0.40
G1 X-0.05 Y0.0 Z-0.35

G1 X0.0 Y0.0 Z-0.3

G1 X0.0 Y0.05 Z-0.35
G1 X0.0 Y0.05 Z-0.40
G1 X0.0 Y0.05 Z-0.35

G1 X0.0 Y0.05 Z-0.3

G1 X0.0 Y-0.05 Z-0.35
G1 X0.0 Y-0.05 Z-0.40
G1 X0.0 Y-0.05 Z-0.35

G1 X0.0 Y0.0 Z-0.3

G1 X-0.05 Y0.0 Z-0.35
G1 X-0.05 Y0.0 Z-0.40
G1 X-0.05 Y0.0 Z-0.35

G1 X0.0 Y0.0 Z-0.3

G1 X0.05 Y0.0 Z-0.35
G1 X0.05 Y0.0 Z-0.40
G1 X0.05 Y0.0 Z-0.35

G1 X0.0 Y0.0 Z-0.3

G1 X0.0 Y-0.05 Z-0.35
G1 X0.0 Y-0.05 Z-0.40
G1 X0.0 Y-0.05 Z-0.35

G1 X0.0 Y0.0 Z-0.3

G1 X0.0 Y0.05 Z-0.35
G1 X0.0 Y0.05 Z-0.40
G1 X0.0 Y0.05 Z-0.35 A00.0 C00.0 

G1 X0.0 Y0.0 Z-0.3